COMMENT,ORIGINATOR,NORAD_CAT_ID,OBJECT_NAME,OBJECT_TYPE,CLASSIFICATION_TYPE,INTLDES,EPOCH,EPOCH_MICROSECONDS,MEAN_MOTION,ECCENTRICITY,INCLINATION,RA_OF_ASC_NODE,ARG_OF_PERICENTER,MEAN_ANOMALY,EPHEMERIS_TYPE,ELEMENT_SET_NO,REV_AT_EPOCH,BSTAR,MEAN_MOTION_DOT,MEAN_MOTION_DDOT,FILE,TLE_LINE0,TLE_LINE1,TLE_LINE2,OBJECT_ID,OBJECT_NUMBER,SEMIMAJOR_AXIS,PERIOD,APOGEE,PERIGEE,DECAYED
"GENERATED VIA SPACETRACK.ORG API","18 SPCS","48884","SPACEBEE-101","PAYLOAD","U","21059F","2023-10-01 21:32:43","948032","15.39513275","0.0005421","97.607","54.7513","258.7854","101.2782","0","999","12574","0.001692","0.0006688","0","4022139","0 SPACEBEE-101","1 48884U 21059F   23274.89773088  .00066880  00000-0  16920-2 0  9995","2 48884  97.6070  54.7513 0005421 258.7854 101.2782 15.39513275125740","2021-059F","48884","6825.685","93.536","451.250","443.849","0"
"GENERATED VIA SPACETRACK.ORG API","18 SPCS","48884","SPACEBEE-101","PAYLOAD","U","21059F","2023-10-01 23:06:19","743264","15.39520497","0.000541","97.607","54.8187","258.3898","101.6739","0","999","12575","0.001656","0.00065459","0","4022177","0 SPACEBEE-101","1 48884U 21059F   23274.96272851  .00065459  00000-0  16560-2 0  9996","2 48884  97.6070  54.8187 0005410 258.3898 101.6739 15.39520497125751","2021-059F","48884","6825.663","93.536","451.221","443.836","0"
"GENERATED VIA SPACETRACK.ORG API","18 SPCS","48884","SPACEBEE-101","PAYLOAD","U","21059F","2023-10-02 20:56:37","162176","15.39653402","0.0005379","97.6073","55.7641","255.9489","104.1159","0","999","12589","0.00188","0.00074738","0","4023120","0 SPACEBEE-101","1 48884U 21059F   23275.87265234  .00074738  00000-0  18800-2 0  9993","2 48884  97.6073  55.7641 0005379 255.9489 104.1159 15.39653402125894","2021-059F","48884","6825.270","93.528","450.807","443.464","0"
"GENERATED VIA SPACETRACK.ORG API","18 SPCS","48884","SPACEBEE-101","PAYLOAD","U","21059F","2023-10-03 03:10:58","36224","15.39688756","0.0005392","97.6073","56.0339","254.1729","105.8922","0","999","12593","0.0018218","0.00072485","0","4023221","0 SPACEBEE-101","1 48884U 21059F   23276.13261616  .00072485  00000-0  18218-2 0  9993","2 48884  97.6073  56.0339 0005392 254.1729 105.8922 15.39688756125936","2021-059F","48884","6825.166","93.525","450.711","443.351","0"
"GENERATED VIA SPACETRACK.ORG API","18 SPCS","48884","SPACEBEE-101","PAYLOAD","U","21059F","2023-10-03 09:25:18","369408","15.39728437","0.0005315","97.607","56.3039","252.9501","107.1162","0","999","12597","0.0016013","0.0006371","0","4023690","0 SPACEBEE-101","1 48884U 21059F   23276.39257372  .00063710  00000-0  16013-2 0  9997","2 48884  97.6070  56.3039 0005315 252.9501 107.1162 15.39728437125978","2021-059F","48884","6825.049","93.523","450.541","443.286","0"
"GENERATED VIA SPACETRACK.ORG API","18 SPCS","48884","SPACEBEE-101","PAYLOAD","U","21059F","2023-10-03 21:53:57","469344","15.39801082","0.0005275","97.6067","56.8443","251.9506","108.1165","0","999","12605","0.0018147","0.00072466","0","4023936","0 SPACEBEE-101","1 48884U 21059F   23276.91247071  .00072466  00000-0  18147-2 0  9998","2 48884  97.6067  56.8443 0005275 251.9506 108.1165 15.39801082126059","2021-059F","48884","6824.834","93.519","450.299","443.099","0"
"GENERATED VIA SPACETRACK.ORG API","18 SPCS","48884","SPACEBEE-101","PAYLOAD","U","21059F","2023-10-04 08:48:59","727744","15.39875782","0.000529","97.6067","57.3166","249.9454","110.1222","0","999","12612","0.0018559","0.00074313","0","4024223","0 SPACEBEE-101","1 48884U 21059F   23277.36735796  .00074313  00000-0  18559-2 0  9994","2 48884  97.6067  57.3166 0005290 249.9454 110.1222 15.39875782126126","2021-059F","48884","6824.613","93.514","450.089","442.868","0"
"GENERATED VIA SPACETRACK.ORG API","18 SPCS","48884","SPACEBEE-101","PAYLOAD","U","21059F","2023-10-04 08:48:59","727744","15.39875782","0.000529","97.6067","57.3166","249.9454","110.1222","0","999","12612","0.0018559","0.00074313","0","4024487","0 SPACEBEE-101","1 48884U 21059F   23277.36735796  .00074313  00000-0  18559-2 0  9994","2 48884  97.6067  57.3166 0005290 249.9454 110.1222 15.39875782126126","2021-059F","48884","6824.613","93.514","450.089","442.868","0"
"GENERATED VIA SPACETRACK.ORG API","18 SPCS","48884","SPACEBEE-101","PAYLOAD","U","21059F","2023-10-04 21:17:34","319328","15.39960011","0.0005299","97.6066","57.8572","249.8154","110.2522","0","999","12620","0.0019683","0.00079086","0","4024820","0 SPACEBEE-101","1 48884U 21059F   23277.88720277  .00079086  00000-0  19683-2 0  9990","2 48884  97.6066  57.8572 0005299 249.8154 110.2522 15.39960011126209","2021-059F","48884","6824.364","93.509","449.846","442.613","0"
"GENERATED VIA SPACETRACK.ORG API","18 SPCS","48884","SPACEBEE-101","PAYLOAD","U","21059F","2023-10-05 08:12:32","501376","15.40040922","0.0005266","97.6066","58.3294","247.7283","112.3404","0","999","12627","0.0021355","0.00086118","0","4025261","0 SPACEBEE-101","1 48884U 21059F   23278.34204284  .00086118  00000-0  21355-2 0  9990","2 48884  97.6066  58.3294 0005266 247.7283 112.3404 15.40040922126271","2021-059F","48884","6824.125","93.504","449.584","442.397","0"
"GENERATED VIA SPACETRACK.ORG API","18 SPCS","48884","SPACEBEE-101","PAYLOAD","U","21059F","2023-10-05 08:12:32","501376","15.40040922","0.0005266","97.6066","58.3294","247.7283","112.3404","0","999","12627","0.0021355","0.00086118","0","4025515","0 SPACEBEE-101","1 48884U 21059F   23278.34204284  .00086118  00000-0  21355-2 0  9990","2 48884  97.6066  58.3294 0005266 247.7283 112.3404 15.40040922126271","2021-059F","48884","6824.125","93.504","449.584","442.397","0"
"GENERATED VIA SPACETRACK.ORG API","18 SPCS","48884","SPACEBEE-101","PAYLOAD","U","21059F","2023-10-05 22:14:35","866464","15.4013708","0.0005231","97.6061","58.9371","247.2367","112.8326","0","999","12636","0.0020376","0.00082385","0","4025843","0 SPACEBEE-101","1 48884U 21059F   23278.92680401  .00082385  00000-0  20376-2 0  9997","2 48884  97.6061  58.9371 0005231 247.2367 112.8326 15.40137080126368","2021-059F","48884","6823.841","93.498","449.276","442.137","0"
"GENERATED VIA SPACETRACK.ORG API","18 SPCS","48884","SPACEBEE-101","PAYLOAD","U","21059F","2023-10-06 09:09:29","587680","15.40212437","0.0005268","97.6059","59.4104","244.9897","115.0801","0","999","12643","0.0018932","0.00076674","0","4026165","0 SPACEBEE-101","1 48884U 21059F   23279.38159245  .00076674  00000-0  18932-2 0  9994","2 48884  97.6059  59.4104 0005268 244.9897 115.0801 15.40212437126438","2021-059F","48884","6823.619","93.494","449.078","441.889","0"
"GENERATED VIA SPACETRACK.ORG API","18 SPCS","48884","SPACEBEE-101","PAYLOAD","U","21059F","2023-10-06 09:09:29","587680","15.40212437","0.0005268","97.6059","59.4104","244.9897","115.0801","0","999","12643","0.0018932","0.00076674","0","4026447","0 SPACEBEE-101","1 48884U 21059F   23279.38159245  .00076674  00000-0  18932-2 0  9994","2 48884  97.6059  59.4104 0005268 244.9897 115.0801 15.40212437126438","2021-059F","48884","6823.619","93.494","449.078","441.889","0"
"GENERATED VIA SPACETRACK.ORG API","18 SPCS","48884","SPACEBEE-101","PAYLOAD","U","21059F","2023-10-06 21:37:54","534432","15.40291118","0.0005263","97.6059","59.9512","245.8665","114.2031","0","999","12651","0.0020058","0.000815","0","4026736","0 SPACEBEE-101","1 48884U 21059F   23279.90132563  .00081500  00000-0  20058-2 0  9992","2 48884  97.6059  59.9512 0005263 245.8665 114.2031 15.40291118126512","2021-059F","48884","6823.386","93.489","448.843","441.660","0"
"GENERATED VIA SPACETRACK.ORG API","18 SPCS","48884","SPACEBEE-101","PAYLOAD","U","21059F","2023-10-07 08:32:44","346912","15.40363038","0.0005289","97.606","60.4235","244.0669","116.0032","0","999","12658","0.0018656","0.00075922","0","4027321","0 SPACEBEE-101","1 48884U 21059F   23280.35606883  .00075922  00000-0  18656-2 0  9996","2 48884  97.6060  60.4235 0005289 244.0669 116.0032 15.40363038126585","2021-059F","48884","6823.174","93.484","448.648","441.430","0"
"GENERATED VIA SPACETRACK.ORG API","18 SPCS","48884","SPACEBEE-101","PAYLOAD","U","21059F","2023-10-07 22:34:37","160832","15.40455261","0.0005197","97.6059","61.0317","243.2644","116.807","0","999","12667","0.0019395","0.00079206","0","4027648","0 SPACEBEE-101","1 48884U 21059F   23280.94070788  .00079206  00000-0  19395-2 0  9990","2 48884  97.6059  61.0317 0005197 243.2644 116.8070 15.40455261126673","2021-059F","48884","6822.902","93.479","448.313","441.221","0"
"GENERATED VIA SPACETRACK.ORG API","18 SPCS","48884","SPACEBEE-101","PAYLOAD","U","21059F","2023-10-07 22:34:37","160832","15.40455261","0.0005197","97.6059","61.0317","243.2644","116.807","0","999","12667","0.0019395","0.00079206","0","4027728","0 SPACEBEE-101","1 48884U 21059F   23280.94070788  .00079206  00000-0  19395-2 0  9990","2 48884  97.6059  61.0317 0005197 243.2644 116.8070 15.40455261126673","2021-059F","48884","6822.902","93.479","448.313","441.221","0"
"GENERATED VIA SPACETRACK.ORG API","18 SPCS","48884","SPACEBEE-101","PAYLOAD","U","21059F","2023-10-08 07:55:50","558592","15.40525502","0.000516","97.6059","61.4365","241.2569","118.8158","0","999","12673","0.0020184","0.00082659","0","4028261","0 SPACEBEE-101","1 48884U 21059F   23281.33044628  .00082659  00000-0  20184-2 0  9992","2 48884  97.6059  61.4365 0005160 241.2569 118.8158 15.40525502126736","2021-059F","48884","6822.694","93.475","448.080","441.039","0"
"GENERATED VIA SPACETRACK.ORG API","18 SPCS","48884","SPACEBEE-101","PAYLOAD","U","21059F","2023-10-08 15:43:30","620928","15.40578218","0.0005081","97.6058","61.7745","240.2342","119.8399","0","999","12678","0.0021015","0.00086254","0","4028343","0 SPACEBEE-101","1 48884U 21059F   23281.65521552  .00086254  00000-0  21015-2 0  9992","2 48884  97.6058  61.7745 0005081 240.2342 119.8399 15.40578218126785","2021-059F","48884","6822.539","93.471","447.870","440.937","0"
